IRIDIUM 921             
1 24873U 97034E   24320.11858428  .00117230  00000+0  13370-2 0  9994
2 24873  86.3764 212.4040 0006798  67.2407 292.9576 15.61819426498801
IRIDIUM 26              
1 24903U 97043A   24320.41010357  .00000935  00000+0  31033-3 0  9992
2 24903  86.4009 200.3172 0002353  82.2836 277.8628 14.36795501426513
IRIDIUM 22              
1 24907U 97043E   24319.60830920  .00000917  00000+0  31129-3 0  9997
2 24907  86.4013 204.0052 0002101  81.6270 278.5165 14.35646477425975
DUMMY MASS 1            
1 24925U 97048A   24320.19483902  .00001096  00000+0  12043-3 0  9995
2 24925  86.3375 234.1754 0006848 163.9637 196.1806 14.86616961473578
DUMMY MASS 2            
1 24926U 97048B   24320.12150254  .00001116  00000+0  12341-3 0  9994
2 24926  86.3369 235.7779 0007087 177.4822 182.6439 14.86372015473344
IRIDIUM 29              
1 24944U 97051A   24320.19120519  .00000984  00000+0  33141-3 0  9999
2 24944  86.3982 233.5619 0002061  84.8531 275.2901 14.36105549422774
IRIDIUM 33              
1 24946U 97051C   24320.15516289  .00000730  00000+0  25129-3 0  9996
2 24946  86.3900 232.8244 0009929  62.6993 297.5212 14.34647387422061
IRIDIUM 28              
1 24948U 97051E   24320.16467829  .00001009  00000+0  33367-3 0  9997
2 24948  86.3992 231.2111 0002698  80.2630 279.8872 14.37054079423171
